STARLINK-36564          
1 67549U 26014T   26035.50002314 -.00071358  00000+0 -37400-3 0  9997
2 67549  97.2781 278.7482 0001374  66.1721   5.4921 15.80865296  3298
STARLINK-36563          
1 67550U 26014U   26035.50002314 -.00305307  00000+0 -16339-2 0  9990
2 67550  97.2770 278.7497 0001477  69.9050   8.4302 15.81021383  3359
STARLINK-36566          
1 67551U 26014V   26035.50002314 -.00621316  00000+0 -34116-2 0  9995
2 67551  97.2766 278.7515 0001070  76.2991   8.0798 15.81246130  3354
STARLINK-36567          
1 67552U 26014W   26035.50002314 -.00933400  00000+0 -52446-2 0  9992
2 67552  97.2765 278.7541 0001359  79.2204  11.2440 15.81522476  3353
STARLINK-36569          
1 67553U 26014X   26035.50002314 -.01257518  00000+0 -70571-2 0  9992
2 67553  97.2764 278.7576 0001507  75.5828  22.8625 15.81894583  3351
STARLINK-36395          
1 67554U 26014Y   26035.50002314 -.01377587  00000+0 -75679-2 0  9996
2 67554  97.2764 278.7676 0001463  72.1635  47.4431 15.82617433  3359
STARLINK-36559          
1 67555U 26014Z   26035.50002314 -.01473656  00000+0 -80497-2 0  9995
2 67555  97.2765 278.7647 0001739  71.6512  41.5032 15.82457249  3352
MR-1                    
1 67556U 26015A   26035.42574057  .00000083  00000+0  10733-3 0  9990
2 67556  88.9987 282.0423 0005058  98.2496 261.9230 13.52685799  1769
MR-2                    
1 67557U 26015B   26035.49994715  .00000043  00000+0  47166-4 0  9992
2 67557  88.9986 282.0350 0005136  97.1528 263.0208 13.52660688  1778
ELECTRON R/B            
1 67558U 26015C   26035.23314226  .01305820 -66907-6  12000-2 0  9993
2 67558  89.0030 281.7114 0546566 223.6347 132.0442 15.05452521  1913
ELECTRON KICK STAGE R/B 
1 67559U 26015D   26035.45202029  .00061082  13147-6  10387-2 0  9996
2 67559  89.0517 281.8232 0534062 290.1090  64.3432 14.66847731  1911
STARLINK-36426          
1 67560U 26014AA  26035.50002314 -.01444044  00000+0 -79820-2 0  9998
2 67560  97.2762 278.7599 0001768  76.8165  27.6295 15.82149428  2198
