CCSDS_OMM_VERS = 2.0
CREATION_DATE  = 
ORIGINATOR     = 

OBJECT_NAME    = STARLINK-36564
OBJECT_ID      = 2026-014T
CENTER_NAME    = EARTH
REF_FRAME      = TEME
TIME_SYSTEM    = UTC
MEAN_ELEMENT_THEORY = SGP/SGP4

EPOCH          = 2026-02-04T12:00:01.999296
MEAN_MOTION    = 15.80865296
ECCENTRICITY   = .0001374
INCLINATION    = 97.2781
RA_OF_ASC_NODE = 278.7482
ARG_OF_PERICENTER = 66.1721
MEAN_ANOMALY   = 5.4921

EPHEMERIS_TYPE = 0
CLASSIFICATION_TYPE = U
NORAD_CAT_ID   = 67549
ELEMENT_SET_NO = 999
REV_AT_EPOCH   = 329
BSTAR          = -.374E-3
MEAN_MOTION_DOT = -.71358E-3
MEAN_MOTION_DDOT = 0

CCSDS_OMM_VERS = 2.0
CREATION_DATE  = 
ORIGINATOR     = 

OBJECT_NAME    = STARLINK-36563
OBJECT_ID      = 2026-014U
CENTER_NAME    = EARTH
REF_FRAME      = TEME
TIME_SYSTEM    = UTC
MEAN_ELEMENT_THEORY = SGP/SGP4

EPOCH          = 2026-02-04T12:00:01.999296
MEAN_MOTION    = 15.81021383
ECCENTRICITY   = .0001477
INCLINATION    = 97.2770
RA_OF_ASC_NODE = 278.7497
ARG_OF_PERICENTER = 69.9050
MEAN_ANOMALY   = 8.4302

EPHEMERIS_TYPE = 0
CLASSIFICATION_TYPE = U
NORAD_CAT_ID   = 67550
ELEMENT_SET_NO = 999
REV_AT_EPOCH   = 335
BSTAR          = -.16339E-2
MEAN_MOTION_DOT = -.305307E-2
MEAN_MOTION_DDOT = 0

CCSDS_OMM_VERS = 2.0
CREATION_DATE  = 
ORIGINATOR     = 

OBJECT_NAME    = STARLINK-36566
OBJECT_ID      = 2026-014V
CENTER_NAME    = EARTH
REF_FRAME      = TEME
TIME_SYSTEM    = UTC
MEAN_ELEMENT_THEORY = SGP/SGP4

EPOCH          = 2026-02-04T12:00:01.999296
MEAN_MOTION    = 15.81246130
ECCENTRICITY   = .000107
INCLINATION    = 97.2766
RA_OF_ASC_NODE = 278.7515
ARG_OF_PERICENTER = 76.2991
MEAN_ANOMALY   = 8.0798

EPHEMERIS_TYPE = 0
CLASSIFICATION_TYPE = U
NORAD_CAT_ID   = 67551
ELEMENT_SET_NO = 999
REV_AT_EPOCH   = 335
BSTAR          = -.34116E-2
MEAN_MOTION_DOT = -.621316E-2
MEAN_MOTION_DDOT = 0

CCSDS_OMM_VERS = 2.0
CREATION_DATE  = 
ORIGINATOR     = 

OBJECT_NAME    = STARLINK-36567
OBJECT_ID      = 2026-014W
CENTER_NAME    = EARTH
REF_FRAME      = TEME
TIME_SYSTEM    = UTC
MEAN_ELEMENT_THEORY = SGP/SGP4

EPOCH          = 2026-02-04T12:00:01.999296
MEAN_MOTION    = 15.81522476
ECCENTRICITY   = .0001359
INCLINATION    = 97.2765
RA_OF_ASC_NODE = 278.7541
ARG_OF_PERICENTER = 79.2204
MEAN_ANOMALY   = 11.2440

EPHEMERIS_TYPE = 0
CLASSIFICATION_TYPE = U
NORAD_CAT_ID   = 67552
ELEMENT_SET_NO = 999
REV_AT_EPOCH   = 335
BSTAR          = -.52446E-2
MEAN_MOTION_DOT = -.9334E-2
MEAN_MOTION_DDOT = 0

CCSDS_OMM_VERS = 2.0
CREATION_DATE  = 
ORIGINATOR     = 

OBJECT_NAME    = STARLINK-36569
OBJECT_ID      = 2026-014X
CENTER_NAME    = EARTH
REF_FRAME      = TEME
TIME_SYSTEM    = UTC
MEAN_ELEMENT_THEORY = SGP/SGP4

EPOCH          = 2026-02-04T12:00:01.999296
MEAN_MOTION    = 15.81894583
ECCENTRICITY   = .0001507
INCLINATION    = 97.2764
RA_OF_ASC_NODE = 278.7576
ARG_OF_PERICENTER = 75.5828
MEAN_ANOMALY   = 22.8625

EPHEMERIS_TYPE = 0
CLASSIFICATION_TYPE = U
NORAD_CAT_ID   = 67553
ELEMENT_SET_NO = 999
REV_AT_EPOCH   = 335
BSTAR          = -.70571E-2
MEAN_MOTION_DOT = -.1257518E-1
MEAN_MOTION_DDOT = 0

CCSDS_OMM_VERS = 2.0
CREATION_DATE  = 
ORIGINATOR     = 

OBJECT_NAME    = STARLINK-36395
OBJECT_ID      = 2026-014Y
CENTER_NAME    = EARTH
REF_FRAME      = TEME
TIME_SYSTEM    = UTC
MEAN_ELEMENT_THEORY = SGP/SGP4

EPOCH          = 2026-02-04T12:00:01.999296
MEAN_MOTION    = 15.82617433
ECCENTRICITY   = .0001463
INCLINATION    = 97.2764
RA_OF_ASC_NODE = 278.7676
ARG_OF_PERICENTER = 72.1635
MEAN_ANOMALY   = 47.4431

EPHEMERIS_TYPE = 0
CLASSIFICATION_TYPE = U
NORAD_CAT_ID   = 67554
ELEMENT_SET_NO = 999
REV_AT_EPOCH   = 335
BSTAR          = -.75679E-2
MEAN_MOTION_DOT = -.1377587E-1
MEAN_MOTION_DDOT = 0

CCSDS_OMM_VERS = 2.0
CREATION_DATE  = 
ORIGINATOR     = 

OBJECT_NAME    = STARLINK-36559
OBJECT_ID      = 2026-014Z
CENTER_NAME    = EARTH
REF_FRAME      = TEME
TIME_SYSTEM    = UTC
MEAN_ELEMENT_THEORY = SGP/SGP4

EPOCH          = 2026-02-04T12:00:01.999296
MEAN_MOTION    = 15.82457249
ECCENTRICITY   = .0001739
INCLINATION    = 97.2765
RA_OF_ASC_NODE = 278.7647
ARG_OF_PERICENTER = 71.6512
MEAN_ANOMALY   = 41.5032

EPHEMERIS_TYPE = 0
CLASSIFICATION_TYPE = U
NORAD_CAT_ID   = 67555
ELEMENT_SET_NO = 999
REV_AT_EPOCH   = 335
BSTAR          = -.80497E-2
MEAN_MOTION_DOT = -.1473656E-1
MEAN_MOTION_DDOT = 0

CCSDS_OMM_VERS = 2.0
CREATION_DATE  = 
ORIGINATOR     = 

OBJECT_NAME    = MR-1
OBJECT_ID      = 2026-015A
CENTER_NAME    = EARTH
REF_FRAME      = TEME
TIME_SYSTEM    = UTC
MEAN_ELEMENT_THEORY = SGP/SGP4

EPOCH          = 2026-02-04T10:13:03.985248
MEAN_MOTION    = 13.52685799
ECCENTRICITY   = .0005058
INCLINATION    = 88.9987
RA_OF_ASC_NODE = 282.0423
ARG_OF_PERICENTER = 98.2496
MEAN_ANOMALY   = 261.9230

EPHEMERIS_TYPE = 0
CLASSIFICATION_TYPE = U
NORAD_CAT_ID   = 67556
ELEMENT_SET_NO = 999
REV_AT_EPOCH   = 176
BSTAR          = .10733E-3
MEAN_MOTION_DOT = .83E-6
MEAN_MOTION_DDOT = 0

CCSDS_OMM_VERS = 2.0
CREATION_DATE  = 
ORIGINATOR     = 

OBJECT_NAME    = MR-2
OBJECT_ID      = 2026-015B
CENTER_NAME    = EARTH
REF_FRAME      = TEME
TIME_SYSTEM    = UTC
MEAN_ELEMENT_THEORY = SGP/SGP4

EPOCH          = 2026-02-04T11:59:55.433760
MEAN_MOTION    = 13.52660688
ECCENTRICITY   = .0005136
INCLINATION    = 88.9986
RA_OF_ASC_NODE = 282.0350
ARG_OF_PERICENTER = 97.1528
MEAN_ANOMALY   = 263.0208

EPHEMERIS_TYPE = 0
CLASSIFICATION_TYPE = U
NORAD_CAT_ID   = 67557
ELEMENT_SET_NO = 999
REV_AT_EPOCH   = 177
BSTAR          = .47166E-4
MEAN_MOTION_DOT = .43E-6
MEAN_MOTION_DDOT = 0

CCSDS_OMM_VERS = 2.0
CREATION_DATE  = 
ORIGINATOR     = 

OBJECT_NAME    = ELECTRON R/B
OBJECT_ID      = 2026-015C
CENTER_NAME    = EARTH
REF_FRAME      = TEME
TIME_SYSTEM    = UTC
MEAN_ELEMENT_THEORY = SGP/SGP4

EPOCH          = 2026-02-04T05:35:43.491264
MEAN_MOTION    = 15.05452521
ECCENTRICITY   = .0546566
INCLINATION    = 89.0030
RA_OF_ASC_NODE = 281.7114
ARG_OF_PERICENTER = 223.6347
MEAN_ANOMALY   = 132.0442

EPHEMERIS_TYPE = 0
CLASSIFICATION_TYPE = U
NORAD_CAT_ID   = 67558
ELEMENT_SET_NO = 999
REV_AT_EPOCH   = 191
BSTAR          = .12E-2
MEAN_MOTION_DOT = .130582E-1
MEAN_MOTION_DDOT = -.66907E-6

CCSDS_OMM_VERS = 2.0
CREATION_DATE  = 
ORIGINATOR     = 

OBJECT_NAME    = ELECTRON KICK STAGE R/B
OBJECT_ID      = 2026-015D
CENTER_NAME    = EARTH
REF_FRAME      = TEME
TIME_SYSTEM    = UTC
MEAN_ELEMENT_THEORY = SGP/SGP4

EPOCH          = 2026-02-04T10:50:54.553056
MEAN_MOTION    = 14.66847731
ECCENTRICITY   = .0534062
INCLINATION    = 89.0517
RA_OF_ASC_NODE = 281.8232
ARG_OF_PERICENTER = 290.1090
MEAN_ANOMALY   = 64.3432

EPHEMERIS_TYPE = 0
CLASSIFICATION_TYPE = U
NORAD_CAT_ID   = 67559
ELEMENT_SET_NO = 999
REV_AT_EPOCH   = 191
BSTAR          = .10387E-2
MEAN_MOTION_DOT = .61082E-3
MEAN_MOTION_DDOT = .13147E-6

CCSDS_OMM_VERS = 2.0
CREATION_DATE  = 
ORIGINATOR     = 

OBJECT_NAME    = STARLINK-36426
OBJECT_ID      = 2026-014AA
CENTER_NAME    = EARTH
REF_FRAME      = TEME
TIME_SYSTEM    = UTC
MEAN_ELEMENT_THEORY = SGP/SGP4

EPOCH          = 2026-02-04T12:00:01.999296
MEAN_MOTION    = 15.82149428
ECCENTRICITY   = .0001768
INCLINATION    = 97.2762
RA_OF_ASC_NODE = 278.7599
ARG_OF_PERICENTER = 76.8165
MEAN_ANOMALY   = 27.6295

EPHEMERIS_TYPE = 0
CLASSIFICATION_TYPE = U
NORAD_CAT_ID   = 67560
ELEMENT_SET_NO = 999
REV_AT_EPOCH   = 219
BSTAR          = -.7982E-2
MEAN_MOTION_DOT = -.1444044E-1
MEAN_MOTION_DDOT = 0

